[{"OBJECT_NAME":"SKYSAT-C4","OBJECT_ID":"2016-058B","EPOCH":"2026-03-09T23:30:00.435744","MEAN_MOTION":15.45385344,"ECCENTRICITY":9.71e-5,"INCLINATION":96.9292,"RA_OF_ASC_NODE":95.0711,"ARG_OF_PERICENTER":119.0883,"MEAN_ANOMALY":241.0464,"EPHEMERIS_TYPE":0,"CLASSIFICATION_TYPE":"U","NORAD_CAT_ID":41771,"ELEMENT_SET_NO":999,"REV_AT_EPOCH":53013,"BSTAR":0.00040419396,"MEAN_MOTION_DOT":0.00019246,"MEAN_MOTION_DDOT":0},{"OBJECT_NAME":"STARLINK-1402","OBJECT_ID":"2020-035AE","EPOCH":"2026-03-09T06:23:56.037120","MEAN_MOTION":15.44772661,"ECCENTRICITY":7.882e-5,"INCLINATION":53.0494,"RA_OF_ASC_NODE":25.4082,"ARG_OF_PERICENTER":198.8556,"MEAN_ANOMALY":161.242,"EPHEMERIS_TYPE":0,"CLASSIFICATION_TYPE":"U","NORAD_CAT_ID":45685,"ELEMENT_SET_NO":999,"REV_AT_EPOCH":31928,"BSTAR":0.0017105302,"MEAN_MOTION_DOT":0.00081749,"MEAN_MOTION_DDOT":0}]
